OBJECT_NAME,OBJECT_ID,EPOCH,MEAN_MOTION,ECCENTRICITY,INCLINATION,RA_OF_ASC_NODE,ARG_OF_PERICENTER,MEAN_ANOMALY,EPHEMERIS_TYPE,CLASSIFICATION_TYPE,NORAD_CAT_ID,ELEMENT_SET_NO,REV_AT_EPOCH,BSTAR,MEAN_MOTION_DOT,MEAN_MOTION_DDOT
SAUDISAT 1C (SO-50),2002-058C,2026-07-11T20:02:33.925632,14.83094671,.00746227,64.5517,52.7226,257.8961,101.3778,0,U,27607,999,26811,.65677356E-4,.404E-5,0
SAUDISAT 2,2004-025F,2026-07-12T13:57:01.836000,14.56697427,.00239287,98.5519,194.2206,216.4275,143.5295,0,U,28371,999,16944,.35824979E-4,.111E-5,0
SAUDISAT 3,2007-012B,2026-07-12T10:03:55.632096,14.71439418,.00154091,98.1467,143.8383,143.0346,217.1925,0,U,31118,999,3145,.2588693E-4,.11E-5,0
PISAT,2016-059B,2026-07-12T13:13:06.910752,14.69026784,.00303469,97.8189,192.9148,122.9134,237.4998,0,U,41784,999,52346,.87651812E-4,.47E-5,0
FLYING LAPTOP,2017-042G,2026-07-12T13:56:13.147008,15.01302217,.00198204,97.4790,348.1565,40.8258,319.4447,0,U,42831,999,49026,.17186147E-3,.2162E-4,0
SALSAT,2020-068K,2026-07-11T12:58:29.571456,15.30139435,.00088233,97.8855,197.0941,206.5203,153.5586,0,U,46495,999,31908,.15528118E-3,.4447E-4,0
